[{"OBJECT_NAME":"ONEWEB-0092","OBJECT_ID":"2020-020P","EPOCH":"2025-08-13T13:01:28.079904","MEAN_MOTION":13.11414281,"ECCENTRICITY":0.0001664,"INCLINATION":87.8795,"RA_OF_ASC_NODE":82.372,"ARG_OF_PERICENTER":90.8223,"MEAN_ANOMALY":269.3096,"EPHEMERIS_TYPE":0,"CLASSIFICATION_TYPE":"U","NORAD_CAT_ID":45437,"ELEMENT_SET_NO":999,"REV_AT_EPOCH":26246,"BSTAR":-0.0009806,"MEAN_MOTION_DOT":-3.35e-6,"MEAN_MOTION_DDOT":0},{"OBJECT_NAME":"ONEWEB-0085","OBJECT_ID":"2020-020Q","EPOCH":"2025-08-13T13:47:27.898944","MEAN_MOTION":13.10859952,"ECCENTRICITY":0.0001696,"INCLINATION":87.8793,"RA_OF_ASC_NODE":82.3792,"ARG_OF_PERICENTER":87.6573,"MEAN_ANOMALY":272.4748,"EPHEMERIS_TYPE":0,"CLASSIFICATION_TYPE":"U","NORAD_CAT_ID":45438,"ELEMENT_SET_NO":999,"REV_AT_EPOCH":26235,"BSTAR":0.00020373,"MEAN_MOTION_DOT":8.4e-7,"MEAN_MOTION_DDOT":0},{"OBJECT_NAME":"ONEWEB-0096","OBJECT_ID":"2020-020R","EPOCH":"2025-08-13T13:56:25.529856","MEAN_MOTION":13.11417831,"ECCENTRICITY":0.0001934,"INCLINATION":87.8804,"RA_OF_ASC_NODE":82.345,"ARG_OF_PERICENTER":80.6292,"MEAN_ANOMALY":279.5054,"EPHEMERIS_TYPE":0,"CLASSIFICATION_TYPE":"U","NORAD_CAT_ID":45439,"ELEMENT_SET_NO":999,"REV_AT_EPOCH":26234,"BSTAR":0.00085891,"MEAN_MOTION_DOT":3.17e-6,"MEAN_MOTION_DDOT":0},{"OBJECT_NAME":"ONEWEB-0037","OBJECT_ID":"2020-020S","EPOCH":"2025-08-13T13:28:20.115552","MEAN_MOTION":13.11418489,"ECCENTRICITY":0.0001669,"INCLINATION":87.8806,"RA_OF_ASC_NODE":82.3139,"ARG_OF_PERICENTER":86.1194,"MEAN_ANOMALY":274.0125,"EPHEMERIS_TYPE":0,"CLASSIFICATION_TYPE":"U","NORAD_CAT_ID":45440,"ELEMENT_SET_NO":999,"REV_AT_EPOCH":26237,"BSTAR":-0.0012107,"MEAN_MOTION_DOT":-4.16e-6,"MEAN_MOTION_DDOT":0},{"OBJECT_NAME":"ONEWEB-0042","OBJECT_ID":"2020-020T","EPOCH":"2025-08-13T13:41:32.024256","MEAN_MOTION":13.11416585,"ECCENTRICITY":0.0001792,"INCLINATION":87.8796,"RA_OF_ASC_NODE":82.3557,"ARG_OF_PERICENTER":86.6474,"MEAN_ANOMALY":273.4859,"EPHEMERIS_TYPE":0,"CLASSIFICATION_TYPE":"U","NORAD_CAT_ID":45441,"ELEMENT_SET_NO":999,"REV_AT_EPOCH":26235,"BSTAR":-0.00022775,"MEAN_MOTION_DOT":-6.8e-7,"MEAN_MOTION_DDOT":0},{"OBJECT_NAME":"ONEWEB-0098","OBJECT_ID":"2020-020U","EPOCH":"2025-08-13T13:35:39.732576","MEAN_MOTION":13.11418512,"ECCENTRICITY":0.0001561,"INCLINATION":87.8799,"RA_OF_ASC_NODE":82.3669,"ARG_OF_PERICENTER":74.3776,"MEAN_ANOMALY":285.7525,"EPHEMERIS_TYPE":0,"CLASSIFICATION_TYPE":"U","NORAD_CAT_ID":45442,"ELEMENT_SET_NO":999,"REV_AT_EPOCH":26232,"BSTAR":-0.00071997,"MEAN_MOTION_DOT":-2.42e-6,"MEAN_MOTION_DDOT":0},{"OBJECT_NAME":"ONEWEB-0055","OBJECT_ID":"2020-020V","EPOCH":"2025-08-13T13:11:14.208864","MEAN_MOTION":13.1141521,"ECCENTRICITY":0.0001714,"INCLINATION":87.8791,"RA_OF_ASC_NODE":82.3711,"ARG_OF_PERICENTER":80.9912,"MEAN_ANOMALY":279.141,"EPHEMERIS_TYPE":0,"CLASSIFICATION_TYPE":"U","NORAD_CAT_ID":45443,"ELEMENT_SET_NO":999,"REV_AT_EPOCH":26229,"BSTAR":-0.0014785,"MEAN_MOTION_DOT":-5.11e-6,"MEAN_MOTION_DDOT":0},{"OBJECT_NAME":"ONEWEB-0093","OBJECT_ID":"2020-020W","EPOCH":"2025-08-13T14:25:55.327584","MEAN_MOTION":13.11416292,"ECCENTRICITY":0.0002174,"INCLINATION":87.8794,"RA_OF_ASC_NODE":82.3462,"ARG_OF_PERICENTER":88.1112,"MEAN_ANOMALY":272.0265,"EPHEMERIS_TYPE":0,"CLASSIFICATION_TYPE":"U","NORAD_CAT_ID":45444,"ELEMENT_SET_NO":999,"REV_AT_EPOCH":26236,"BSTAR":0.0013036,"MEAN_MOTION_DOT":4.75e-6,"MEAN_MOTION_DDOT":0},{"OBJECT_NAME":"ONEWEB-0029","OBJECT_ID":"2020-020X","EPOCH":"2025-08-13T12:59:02.187456","MEAN_MOTION":13.1141364,"ECCENTRICITY":0.0001878,"INCLINATION":87.8797,"RA_OF_ASC_NODE":82.3705,"ARG_OF_PERICENTER":82.7037,"MEAN_ANOMALY":277.4305,"EPHEMERIS_TYPE":0,"CLASSIFICATION_TYPE":"U","NORAD_CAT_ID":45445,"ELEMENT_SET_NO":999,"REV_AT_EPOCH":26233,"BSTAR":-0.00065532,"MEAN_MOTION_DOT":-2.2e-6,"MEAN_MOTION_DDOT":0},{"OBJECT_NAME":"ONEWEB-0068","OBJECT_ID":"2020-020Y","EPOCH":"2025-08-13T14:25:29.791200","MEAN_MOTION":13.11417787,"ECCENTRICITY":0.0001901,"INCLINATION":87.8794,"RA_OF_ASC_NODE":82.3472,"ARG_OF_PERICENTER":81.6467,"MEAN_ANOMALY":278.4876,"EPHEMERIS_TYPE":0,"CLASSIFICATION_TYPE":"U","NORAD_CAT_ID":45446,"ELEMENT_SET_NO":999,"REV_AT_EPOCH":26228,"BSTAR":0.0012938,"MEAN_MOTION_DOT":4.71e-6,"MEAN_MOTION_DDOT":0},{"OBJECT_NAME":"ONEWEB-0046","OBJECT_ID":"2020-020Z","EPOCH":"2025-08-13T14:13:30.994176","MEAN_MOTION":13.11417062,"ECCENTRICITY":0.000189,"INCLINATION":87.8798,"RA_OF_ASC_NODE":82.3592,"ARG_OF_PERICENTER":88.1994,"MEAN_ANOMALY":271.9351,"EPHEMERIS_TYPE":0,"CLASSIFICATION_TYPE":"U","NORAD_CAT_ID":45447,"ELEMENT_SET_NO":999,"REV_AT_EPOCH":26229,"BSTAR":0.001238,"MEAN_MOTION_DOT":4.51e-6,"MEAN_MOTION_DDOT":0},{"OBJECT_NAME":"ONEWEB-0063","OBJECT_ID":"2020-020AA","EPOCH":"2025-08-13T13:05:07.889280","MEAN_MOTION":13.11414434,"ECCENTRICITY":0.0001697,"INCLINATION":87.8796,"RA_OF_ASC_NODE":82.3665,"ARG_OF_PERICENTER":90.6313,"MEAN_ANOMALY":269.5009,"EPHEMERIS_TYPE":0,"CLASSIFICATION_TYPE":"U","NORAD_CAT_ID":45448,"ELEMENT_SET_NO":999,"REV_AT_EPOCH":26237,"BSTAR":-0.0010251,"MEAN_MOTION_DOT":-3.51e-6,"MEAN_MOTION_DDOT":0},{"OBJECT_NAME":"ONEWEB-0019","OBJECT_ID":"2020-020AB","EPOCH":"2025-08-13T14:17:10.876992","MEAN_MOTION":13.11415693,"ECCENTRICITY":0.0001754,"INCLINATION":87.8793,"RA_OF_ASC_NODE":82.374,"ARG_OF_PERICENTER":79.7054,"MEAN_ANOMALY":280.4272,"EPHEMERIS_TYPE":0,"CLASSIFICATION_TYPE":"U","NORAD_CAT_ID":45449,"ELEMENT_SET_NO":999,"REV_AT_EPOCH":26222,"BSTAR":0.0014618,"MEAN_MOTION_DOT":5.31e-6,"MEAN_MOTION_DDOT":0},{"OBJECT_NAME":"ONEWEB-0094","OBJECT_ID":"2020-020AC","EPOCH":"2025-08-13T14:05:53.158848","MEAN_MOTION":13.17890842,"ECCENTRICITY":0.000186,"INCLINATION":87.9031,"RA_OF_ASC_NODE":67.046,"ARG_OF_PERICENTER":87.8828,"MEAN_ANOMALY":272.2517,"EPHEMERIS_TYPE":0,"CLASSIFICATION_TYPE":"U","NORAD_CAT_ID":45450,"ELEMENT_SET_NO":999,"REV_AT_EPOCH":26580,"BSTAR":0.00010379,"MEAN_MOTION_DOT":5.3e-7,"MEAN_MOTION_DDOT":0},{"OBJECT_NAME":"ONEWEB-0087","OBJECT_ID":"2020-020AD","EPOCH":"2025-08-13T13:19:33.682080","MEAN_MOTION":13.11418971,"ECCENTRICITY":0.0001989,"INCLINATION":87.879,"RA_OF_ASC_NODE":82.3145,"ARG_OF_PERICENTER":83.0139,"MEAN_ANOMALY":277.1215,"EPHEMERIS_TYPE":0,"CLASSIFICATION_TYPE":"U","NORAD_CAT_ID":45451,"ELEMENT_SET_NO":999,"REV_AT_EPOCH":26226,"BSTAR":-0.001374,"MEAN_MOTION_DOT":-4.74e-6,"MEAN_MOTION_DDOT":0},{"OBJECT_NAME":"ONEWEB-0082","OBJECT_ID":"2020-020AE","EPOCH":"2025-08-13T13:14:54.811392","MEAN_MOTION":13.11415709,"ECCENTRICITY":0.0001852,"INCLINATION":87.8792,"RA_OF_ASC_NODE":82.3402,"ARG_OF_PERICENTER":78.5774,"MEAN_ANOMALY":281.5562,"EPHEMERIS_TYPE":0,"CLASSIFICATION_TYPE":"U","NORAD_CAT_ID":45452,"ELEMENT_SET_NO":999,"REV_AT_EPOCH":26235,"BSTAR":-0.0015703,"MEAN_MOTION_DOT":-5.44e-6,"MEAN_MOTION_DDOT":0},{"OBJECT_NAME":"ONEWEB-0050","OBJECT_ID":"2020-020AF","EPOCH":"2025-08-13T13:43:27.649920","MEAN_MOTION":14.90953793,"ECCENTRICITY":0.0003486,"INCLINATION":87.9958,"RA_OF_ASC_NODE":280.7833,"ARG_OF_PERICENTER":48.2251,"MEAN_ANOMALY":311.9275,"EPHEMERIS_TYPE":0,"CLASSIFICATION_TYPE":"U","NORAD_CAT_ID":45453,"ELEMENT_SET_NO":999,"REV_AT_EPOCH":29458,"BSTAR":-0.00013797,"MEAN_MOTION_DOT":-1.334e-5,"MEAN_MOTION_DDOT":0}]
