ONEWEB-0092             
1 45437U 20020P   25225.54268611 -.00000335  00000+0 -98060-3 0  9994
2 45437  87.8795  82.3720 0001664  90.8223 269.3096 13.11414281262463
ONEWEB-0085             
1 45438U 20020Q   25225.57462846  .00000084  00000+0  20373-3 0  9995
2 45438  87.8793  82.3792 0001696  87.6573 272.4748 13.10859952262352
ONEWEB-0096             
1 45439U 20020R   25225.58085104  .00000317  00000+0  85891-3 0  9990
2 45439  87.8804  82.3450 0001934  80.6292 279.5054 13.11417831262347
ONEWEB-0037             
1 45440U 20020S   25225.56134393 -.00000416  00000+0 -12107-2 0  9996
2 45440  87.8806  82.3139 0001669  86.1194 274.0125 13.11418489262374
ONEWEB-0042             
1 45441U 20020T   25225.57050954 -.00000068  00000+0 -22775-3 0  9994
2 45441  87.8796  82.3557 0001792  86.6474 273.4859 13.11416585262350
ONEWEB-0098             
1 45442U 20020U   25225.56643209 -.00000242  00000+0 -71997-3 0  9999
2 45442  87.8799  82.3669 0001561  74.3776 285.7525 13.11418512262326
ONEWEB-0055             
1 45443U 20020V   25225.54947001 -.00000511  00000+0 -14785-2 0  9995
2 45443  87.8791  82.3711 0001714  80.9912 279.1410 13.11415210262290
ONEWEB-0093             
1 45444U 20020W   25225.60133481  .00000475  00000+0  13036-2 0  9997
2 45444  87.8794  82.3462 0002174  88.1112 272.0265 13.11416292262369
ONEWEB-0029             
1 45445U 20020X   25225.54099754 -.00000220  00000+0 -65532-3 0  9994
2 45445  87.8797  82.3705 0001878  82.7037 277.4305 13.11413640262334
ONEWEB-0068             
1 45446U 20020Y   25225.60103925  .00000471  00000+0  12938-2 0  9995
2 45446  87.8794  82.3472 0001901  81.6467 278.4876 13.11417787262289
ONEWEB-0046             
1 45447U 20020Z   25225.59271984  .00000451  00000+0  12380-2 0  9994
2 45447  87.8798  82.3592 0001890  88.1994 271.9351 13.11417062262294
ONEWEB-0063             
1 45448U 20020AA  25225.54523020 -.00000351  00000+0 -10251-2 0  9997
2 45448  87.8796  82.3665 0001697  90.6313 269.5009 13.11414434262374
ONEWEB-0019             
1 45449U 20020AB  25225.59526478  .00000531  00000+0  14618-2 0  9992
2 45449  87.8793  82.3740 0001754  79.7054 280.4272 13.11415693262226
ONEWEB-0094             
1 45450U 20020AC  25225.58742082  .00000053  00000+0  10379-3 0  9994
2 45450  87.9031  67.0460 0001860  87.8828 272.2517 13.17890842265807
ONEWEB-0087             
1 45451U 20020AD  25225.55525095 -.00000474  00000+0 -13740-2 0  9998
2 45451  87.8790  82.3145 0001989  83.0139 277.1215 13.11418971262263
ONEWEB-0082             
1 45452U 20020AE  25225.55202328 -.00000544  00000+0 -15703-2 0  9999
2 45452  87.8792  82.3402 0001852  78.5774 281.5562 13.11415709262355
ONEWEB-0050             
1 45453U 20020AF  25225.57184780 -.00001334  00000+0 -13797-3 0  9993
2 45453  87.9958 280.7833 0003486  48.2251 311.9275 14.90953793294589
